ONEWEB-0579             
1 56068U 23043Y   24194.58762897  .00000005  00000+0 -18674-4 0  9994
2 56068  87.9274  24.2333 0002072  78.2130 281.9237 13.21825201 65168
ONEWEB-0581             
1 56069U 23043Z   24194.50645068  .00000000  00000+0 -32801-4 0  9990
2 56069  87.9104   9.0883 0002408  92.0012 268.1394 13.16593405 66230
ONEWEB-0609             
1 56070U 23043AA  24194.58866198 -.00000058  00000+0 -18744-3 0  9992
2 56070  87.9021  39.4310 0001739  82.6137 277.5191 13.15547256 64702
ONEWEB-0613             
1 56071U 23043AB  24194.58390785 -.00000005  00000+0 -46156-4 0  9998
2 56071  87.9025  39.4289 0001910  75.5864 284.5478 13.15547004 64708
ONEWEB-0630             
1 56072U 23043AC  24194.57916122  .00000028  00000+0  41010-4 0  9994
2 56072  87.9021  39.4200 0001815  72.6536 287.4792 13.15547779 64694
ONEWEB-0632             
1 56073U 23043AD  24194.57441238  .00000014  00000+0  43977-5 0  9996
2 56073  87.9023  39.4398 0002150  84.5944 275.5431 13.15548814 64692
ONEWEB-0633             
1 56074U 23043AE  24194.56805833  .00000145  00000+0  35132-3 0  9998
2 56074  87.9017  39.4218 0001677  66.9441 293.1866 13.15547292 63760
